FENGYUN 1C DEB          
1 37914U 99025ENP 26141.22594290  .00001193  00000+0  60727-3 0  9994
2 37914  99.2121 144.6199 0065706 263.1288  96.2406 14.16773188644465
