[
  {
    "OBJECT_NAME": "FENGYUN 1C DEB",
    "OBJECT_ID": "1999-025ENP",
    "EPOCH": "2026-05-21T05:25:21.466560",
    "MEAN_MOTION": 14.16773188,
    "ECCENTRICITY": 0.00657061,
    "INCLINATION": 99.2121,
    "RA_OF_ASC_NODE": 144.6199,
    "ARG_OF_PERICENTER": 263.1288,
    "MEAN_ANOMALY": 96.2406,
    "EPHEMERIS_TYPE": 0,
    "CLASSIFICATION_TYPE": "U",
    "NORAD_CAT_ID": 37914,
    "ELEMENT_SET_NO": 999,
    "REV_AT_EPOCH": 64446,
    "BSTAR": 0.00060726544,
    "MEAN_MOTION_DOT": 0.00001193,
    "MEAN_MOTION_DDOT": 0
  }
]
